ONEWEB-0267             
1 48985U 21060U   25135.37268147  .00000011  00000+0 -37153-5 0  9993
2 48985  87.9015 308.0716 0001476  94.7173 265.4126 13.16594029187248
ONEWEB-0268             
1 48986U 21060V   25135.41701196 -.00000014  00000+0 -69892-4 0  9993
2 48986  87.9016 308.0695 0001665  89.0485 271.0837 13.16593469187518
ONEWEB-0269             
1 48987U 21060W   25135.01803002  .00000043  00000+0  79127-4 0  9991
2 48987  87.9016 308.1839 0001801  91.2312 268.9025 13.16592538187235
ONEWEB-0270             
1 48988U 21060X   25135.26345825 -.00000004  00000+0 -43826-4 0  9999
2 48988  87.9015 308.1041 0001443 105.0910 255.0381 13.16595635187301
ONEWEB-0271             
1 48989U 21060Y   25135.47875983  .00000093  00000+0  21039-3 0  9993
2 48989  87.9019 308.0422 0001463  95.2568 264.8730 13.16592951187336
ONEWEB-0272             
1 48990U 21060Z   25135.42492769 -.00000095  00000+0 -28152-3 0  9994
2 48990  87.9016 308.0847 0001560  94.4502 265.6807 13.16593301187270
ONEWEB-0273             
1 48991U 21060AA  25135.37109779  .00000065  00000+0  13692-3 0  9993
2 48991  87.9015 308.0805 0001672  99.0294 261.1026 13.16593352187244
ONEWEB-0274             
1 48992U 21060AB  25135.47242096  .00000102  00000+0  23313-3 0  9998
2 48992  87.9022 308.0961 0001548  80.6936 279.4370 13.16596713187290
